SKYKRAFT-1A             
1 55054U 23001AX  26068.71064616  .00008177  00000+0  30069-3 0  9991
2 55054  97.3349 127.6290 0011277 121.5092 238.7251 15.28083228176529
STARLINK-35321          
1 66074U 25235S   26068.72712156  .00023839  00000+0  81423-3 0  9998
2 66074  53.1585 245.3458 0000880 143.6365 216.4696 15.30206764 22920
